OBJECT_NAME,OBJECT_ID,EPOCH,MEAN_MOTION,ECCENTRICITY,INCLINATION,RA_OF_ASC_NODE,ARG_OF_PERICENTER,MEAN_ANOMALY,EPHEMERIS_TYPE,CLASSIFICATION_TYPE,NORAD_CAT_ID,ELEMENT_SET_NO,REV_AT_EPOCH,BSTAR,MEAN_MOTION_DOT,MEAN_MOTION_DDOT
STARLINK-36952,2026-041Y,2026-07-06T01:44:48.101280,15.34378065,.00010694,53.1577,217.1397,73.1964,286.9156,0,U,68062,999,1955,.70193069E-3,.23397E-3,0
STARLINK-37000,2026-041Z,2026-07-05T23:01:24.181824,15.34398909,.00013442,53.1580,217.8530,119.8653,240.2483,0,U,68063,999,1953,.60189401E-3,.20013E-3,0
STARLINK-36996,2026-041AA,2026-07-06T02:17:58.479936,15.34363682,.00017765,53.1577,216.5628,105.7943,254.3255,0,U,68064,999,1956,.44713573E-3,.14743E-3,0
STARLINK-36836,2026-041AB,2026-07-06T01:24:21.805344,15.34377754,.00026931,53.1573,219.1634,88.3515,271.7796,0,U,68065,999,1952,.96110632E-3,.32215E-3,0
STARLINK-36976,2026-041AC,2026-07-05T13:59:43.321056,15.34404796,.00011763,53.1566,219.0533,83.0295,277.0842,0,U,68066,999,1948,.15261039E-2,.51548E-3,0
STARLINK-36929,2026-041AD,2026-07-06T01:47:48.302304,15.34414809,.00052987,53.1579,217.1570,83.6925,276.4681,0,U,68067,999,1955,.11892945E-2,.40053E-3,0
STARLINK-36990,2026-041AE,2026-07-06T02:03:37.881504,15.34355290,.00015032,53.1573,218.6238,117.9637,242.1517,0,U,68068,999,1953,.14301852E-2,.48187E-3,0
STARLINK-36766,2026-042A,2026-07-05T21:14:37.230432,15.34380352,.00004966,53.1599,348.1505,98.2935,261.8124,0,U,68069,999,2042,.89580669E-3,.29992E-3,0
STARLINK-36823,2026-042B,2026-07-05T20:34:25.382208,15.34351969,.00010014,53.1599,345.7973,53.1718,306.9376,0,U,68070,999,2045,.79515666E-3,.26544E-3,0
STARLINK-36970,2026-042C,2026-07-05T22:30:13.864608,15.34388557,.00006755,53.1594,347.7649,123.2096,236.8972,0,U,68071,999,2043,.12163819E-2,.40931E-3,0
STARLINK-36972,2026-042D,2026-07-05T20:07:58.094112,15.34358125,.00013246,53.1612,347.8477,60.0552,300.0582,0,U,68072,999,2042,.8982443E-3,.30054E-3,0
STARLINK-37074,2026-042E,2026-07-05T20:23:06.794880,15.34363454,.00007515,53.1607,347.9148,98.4061,261.7027,0,U,68073,999,2042,.10293614E-2,.34522E-3,0
STARLINK-37045,2026-042F,2026-07-05T17:54:54.290880,15.34376923,.00009897,53.1588,348.7167,158.0522,202.0524,0,U,68074,999,2040,.93289837E-3,.31252E-3,0
STARLINK-37026,2026-042G,2026-07-05T21:11:35.954592,15.34354292,.00009506,53.1599,348.1407,35.7206,324.3860,0,U,68075,999,2042,.97709999E-3,.32733E-3,0
STARLINK-37023,2026-042H,2026-07-05T22:24:10.464480,15.34376846,.00009006,53.1591,347.7407,131.5472,228.5608,0,U,68076,999,2043,.62404302E-3,.20751E-3,0
STARLINK-37036,2026-042J,2026-07-05T19:49:06.029472,15.34375565,.00002857,53.1603,346.3404,171.0220,189.0788,0,U,68077,999,2044,.94595703E-3,.31695E-3,0
STARLINK-36973,2026-042K,2026-07-05T20:20:05.154432,15.34376848,.00006263,53.1609,347.9019,112.2801,247.8268,0,U,68078,999,2042,.11769237E-2,.39569E-3,0
STARLINK-37063,2026-042L,2026-07-05T17:33:42.012864,15.34361387,.00009341,53.1599,348.6045,43.4796,316.6280,0,U,68079,999,2040,.63981515E-3,.21276E-3,0
STARLINK-37051,2026-042M,2026-07-05T21:10:46.680672,15.34361346,.00007989,53.1596,345.9645,94.7451,265.3643,0,U,68080,999,2045,.92781876E-3,.31063E-3,0
STARLINK-37066,2026-042N,2026-07-05T20:01:13.465632,15.34359134,.00008088,53.1616,346.3945,83.6100,276.4995,0,U,68081,999,2044,.11981763E-2,.40271E-3,0
STARLINK-37054,2026-042P,2026-07-05T17:18:32.534496,15.34363575,.00006023,53.1611,348.5273,86.9123,273.1948,0,U,68082,999,2040,.62101866E-3,.2064E-3,0
STARLINK-37065,2026-042Q,2026-07-05T21:05:31.616160,15.34380957,.00008801,53.1583,348.1144,137.5335,222.5736,0,U,68083,999,2042,.11229921E-2,.37734E-3,0
STARLINK-37037,2026-042R,2026-07-05T20:14:00.695040,15.34394461,.00005177,53.1616,347.8786,69.5741,290.5317,0,U,68084,999,2042,.11857519E-2,.39892E-3,0
STARLINK-37068,2026-042S,2026-07-05T19:43:02.994816,15.34381985,.00013377,53.1594,346.3039,69.5702,290.5444,0,U,68085,999,2044,.98654799E-3,.33084E-3,0
STARLINK-37067,2026-042T,2026-07-05T19:55:09.305184,15.34366971,.00006338,53.1619,346.3446,207.9959,152.1010,0,U,68086,999,2044,.73312209E-3,.24448E-3,0
STARLINK-37062,2026-042U,2026-07-05T18:25:04.624896,15.34366191,.00008535,53.1610,348.1034,90.2903,269.8197,0,U,68087,999,2041,.15132229E-2,.51044E-3,0
STARLINK-37059,2026-042V,2026-07-05T20:53:24.630144,15.34376027,.00006627,53.1597,348.0607,130.7101,229.3959,0,U,68088,999,2042,.10006805E-2,.33559E-3,0
STARLINK-37004,2026-042W,2026-07-05T19:46:53.456448,15.34345802,.00009967,53.1601,348.4785,48.5290,311.5798,0,U,68089,999,2041,.85320764E-3,.28511E-3,0
STARLINK-36320,2026-042X,2026-07-05T20:04:56.464896,15.34357808,.00012469,53.1605,347.8414,50.0379,310.0733,0,U,68090,999,2042,.10891508E-2,.36553E-3,0
STARLINK-36324,2026-042Y,2026-07-05T19:52:48.805824,15.34368912,.00004587,53.1610,347.7834,18.5097,341.5922,0,U,68091,999,2042,.11368551E-2,.38192E-3,0
