[ {"name": "STARLINK-36952", "line1": "1 68062U 26041Y   26187.07277895  .00023397  00000+0  70193-3 0  9990", "line2": "2 68062  53.1577 217.1397 0001069  73.1964 286.9156 15.34378065 19557"}, {"name": "STARLINK-37000", "line1": "1 68063U 26041Z   26186.95930766  .00020013  00000+0  60189-3 0  9996", "line2": "2 68063  53.1580 217.8530 0001344 119.8653 240.2483 15.34398909 19530"}, {"name": "STARLINK-36996", "line1": "1 68064U 26041AA  26187.09581574  .00014743  00000+0  44714-3 0  9991", "line2": "2 68064  53.1577 216.5628 0001776 105.7943 254.3255 15.34363682 19562"}, {"name": "STARLINK-36836", "line1": "1 68065U 26041AB  26187.05858571  .00032215  00000+0  96111-3 0  9994", "line2": "2 68065  53.1573 219.1634 0002693  88.3515 271.7796 15.34377754 19529"}, {"name": "STARLINK-36976", "line1": "1 68066U 26041AC  26186.58314029  .00051548  00000+0  15261-2 0  9993", "line2": "2 68066  53.1566 219.0533 0001176  83.0295 277.0842 15.34404796 19484"}, {"name": "STARLINK-36929", "line1": "1 68067U 26041AD  26187.07486461  .00040053  00000+0  11893-2 0  9995", "line2": "2 68067  53.1579 217.1570 0005298  83.6925 276.4681 15.34414809 19552"}, {"name": "STARLINK-36990", "line1": "1 68068U 26041AE  26187.08585511  .00048187  00000+0  14302-2 0  9997", "line2": "2 68068  53.1573 218.6238 0001503 117.9637 242.1517 15.34355290 19534"}, {"name": "STARLINK-36766", "line1": "1 68069U 26042A   26186.88515313  .00029992  00000+0  89581-3 0  9994", "line2": "2 68069  53.1599 348.1505 0000496  98.2935 261.8124 15.34380352 20420"}, {"name": "STARLINK-36823", "line1": "1 68070U 26042B   26186.85723822  .00026544  00000+0  79516-3 0  9996", "line2": "2 68070  53.1599 345.7973 0001001  53.1718 306.9376 15.34351969 20451"}, {"name": "STARLINK-36970", "line1": "1 68071U 26042C   26186.93766047  .00040931  00000+0  12164-2 0  9993", "line2": "2 68071  53.1594 347.7649 0000675 123.2096 236.8972 15.34388557 20437"}, {"name": "STARLINK-36972", "line1": "1 68072U 26042D   26186.83886683  .00030054  00000+0  89824-3 0  9995", "line2": "2 68072  53.1612 347.8477 0001324  60.0552 300.0582 15.34358125 20424"}, {"name": "STARLINK-37074", "line1": "1 68073U 26042E   26186.84938420  .00034522  00000+0  10294-2 0  9992", "line2": "2 68073  53.1607 347.9148 0000751  98.4061 261.7027 15.34363454 20426"}, {"name": "STARLINK-37045", "line1": "1 68074U 26042F   26186.74646170  .00031252  00000+0  93290-3 0  9995", "line2": "2 68074  53.1588 348.7167 0000989 158.0522 202.0524 15.34376923 20406"}, {"name": "STARLINK-37026", "line1": "1 68075U 26042G   26186.88305503  .00032733  00000+0  97710-3 0  9999", "line2": "2 68075  53.1599 348.1407 0000950  35.7206 324.3860 15.34354292 20426"}, {"name": "STARLINK-37023", "line1": "1 68076U 26042H   26186.93345445  .00020751  00000+0  62404-3 0  9994", "line2": "2 68076  53.1591 347.7407 0000900 131.5472 228.5608 15.34376846 20434"}, {"name": "STARLINK-37036", "line1": "1 68077U 26042J   26186.82576423  .00031695  00000+0  94596-3 0  9991", "line2": "2 68077  53.1603 346.3404 0000285 171.0220 189.0788 15.34375565 20445"}, {"name": "STARLINK-36973", "line1": "1 68078U 26042K   26186.84728188  .00039569  00000+0  11769-2 0  9999", "line2": "2 68078  53.1609 347.9019 0000626 112.2801 247.8268 15.34376848 20421"}, {"name": "STARLINK-37063", "line1": "1 68079U 26042L   26186.73173626  .00021276  00000+0  63982-3 0  9990", "line2": "2 68079  53.1599 348.6045 0000934  43.4796 316.6280 15.34361387 20406"}, {"name": "STARLINK-37051", "line1": "1 68080U 26042M   26186.88248473  .00031063  00000+0  92782-3 0  9996", "line2": "2 68080  53.1596 345.9645 0000798  94.7451 265.3643 15.34361346 20459"}, {"name": "STARLINK-37066", "line1": "1 68081U 26042N   26186.83418363  .00040271  00000+0  11982-2 0  9992", "line2": "2 68081  53.1616 346.3945 0000808  83.6100 276.4995 15.34359134 20445"}, {"name": "STARLINK-37054", "line1": "1 68082U 26042P   26186.72120989  .00020640  00000+0  62102-3 0  9994", "line2": "2 68082  53.1611 348.5273 0000602  86.9123 273.1948 15.34363575 20404"}, {"name": "STARLINK-37065", "line1": "1 68083U 26042Q   26186.87883815  .00037734  00000+0  11230-2 0  9992", "line2": "2 68083  53.1583 348.1144 0000880 137.5335 222.5736 15.34380957 20420"}, {"name": "STARLINK-37037", "line1": "1 68084U 26042R   26186.84306360  .00039892  00000+0  11858-2 0  9998", "line2": "2 68084  53.1616 347.8786 0000517  69.5741 290.5317 15.34394461 20423"}, {"name": "STARLINK-37068", "line1": "1 68085U 26042S   26186.82156244  .00033084  00000+0  98655-3 0  9999", "line2": "2 68085  53.1594 346.3039 0001337  69.5702 290.5444 15.34381985 20442"}, {"name": "STARLINK-37067", "line1": "1 68086U 26042T   26186.82996881  .00024448  00000+0  73312-3 0  9996", "line2": "2 68086  53.1619 346.3446 0000633 207.9959 152.1010 15.34366971 20443"}, {"name": "STARLINK-37062", "line1": "1 68087U 26042U   26186.76741464  .00051044  00000+0  15132-2 0  9992", "line2": "2 68087  53.1610 348.1034 0000853  90.2903 269.8197 15.34366191 20417"}, {"name": "STARLINK-37059", "line1": "1 68088U 26042V   26186.87042396  .00033559  00000+0  10007-2 0  9990", "line2": "2 68088  53.1597 348.0607 0000662 130.7101 229.3959 15.34376027 20422"}, {"name": "STARLINK-37004", "line1": "1 68089U 26042W   26186.82422982  .00028511  00000+0  85321-3 0  9993", "line2": "2 68089  53.1601 348.4785 0000996  48.5290 311.5798 15.34345802 20416"}, {"name": "STARLINK-36320", "line1": "1 68090U 26042X   26186.83676464  .00036553  00000+0  10892-2 0  9997", "line2": "2 68090  53.1605 347.8414 0001246  50.0379 310.0733 15.34357808 20422"}, {"name": "STARLINK-36324", "line1": "1 68091U 26042Y   26186.82834266  .00038192  00000+0  11369-2 0  9994", "line2": "2 68091  53.1610 347.7834 0000458  18.5097 341.5922 15.34368912 20421"}]